ONEWEB-0624             
1 55165U 23004AB  23233.91667824  .00000016  00000+0  00000+0 0  9992
2 55165  87.4930 196.1279 0003948  16.5548  84.4294 13.72587806 32804
ONEWEB-0625             
1 55166U 23004AC  23232.45964803  .00000882  00000+0  18413-2 0  9999
2 55166  87.9558 210.9111 0002536  97.6929 262.4498 13.30719083 31677
ONEWEB-0626             
1 55167U 23004AD  23233.00058610  .00000052  00000+0  81329-4 0  9999
2 55167  87.9697 210.7569 0002400 104.2626 255.8780 13.30954988 31750
ONEWEB-0627             
1 55168U 23004AE  23233.55149741 -.00000013  00000+0 -54917-4 0  9998
2 55168  87.9559 210.7001 0002754  68.1619 291.9813 13.30817646 31826
ONEWEB-0628             
1 55169U 23004AF  23233.91667824  .00000015  00000+0  00000+0 0  9995
2 55169  87.5123 196.1702 0006046 205.5986 112.9392 13.70331371 32800
ONEWEB-0629             
1 55170U 23004AG  23232.46214417  .00000064  00000+0  10812-3 0  9992
2 55170  87.9702 210.8627 0002050 117.9124 242.2222 13.30969692 31683
ONEWEB-0631             
1 55171U 23004AH  23233.43244467  .00001376  00000+0  24672-3 0  9995
2 55171  86.6335 192.5577 0001760 122.6299 237.5084 14.66091693 32967
ONEWEB-0709             
1 55172U 23004AJ  23233.51057017 -.00002988  00000+0 -84692-2 0  9997
2 55172  87.8909 225.8176 0002915  82.7475 277.3984 13.11412761 30790
